0 COSMOS 1275 DEB
1 14358U 81053HU  13282.68444843  .00000419  00000-0  28015-3 0  9718
2 14358 082.8182 344.4713 0201914 114.8850 014.1277 13.89255805536341
0 COSMOS 1275 DEB
1 14358U 81053HU  13284.18218315  .00000484  00000-0  32580-3 0  9723
2 14358 082.8181 343.3142 0201729 110.6465 304.7460 13.89256609536552
0 COSMOS 1275 DEB
1 14358U 81053HU  13286.19885466  .00000427  00000-0  28585-3 0  9742
2 14358 082.8180 341.7562 0201492 104.9200 310.7504 13.89257889536837
0 COSMOS 1275 DEB
1 14358U 81053HU  13287.20809366  .00000488  00000-0  32871-3 0  9751
2 14358 082.8178 340.9764 0201390 102.0548 318.2727 13.89258379536970
0 COSMOS 1275 DEB
1 14358U 81053HU  13288.59048178  .00000604  00000-0  40991-3 0  9763
2 14358 082.8175 339.9082 0201250 098.1221 032.0446 13.89260202537165
0 COSMOS 1275 DEB
1 14358U 81053HU  13289.60310069  .00000599  00000-0  40615-3 0  9774
2 14358 082.8174 339.1258 0201126 095.2498 056.4795 13.89262239537302
0 COSMOS 1275 DEB
1 14358U 81053HU  13290.61126950  .00000612  00000-0  41577-3 0  9786
2 14358 082.8173 338.3467 0201029 092.3816 058.6706 13.89263118537446
0 COSMOS 1275 DEB
1 14358U 81053HU  13292.17758375  .00000604  00000-0  40997-3 0  9798
2 14358 082.8173 337.1362 0200895 087.9195 332.3497 13.89264133537668
0 COSMOS 1275 DEB
1 14358U 81053HU  13293.18578728  .00000648  00000-0  44115-3 0  9808
2 14358 082.8174 336.3570 0200804 085.0447 334.7312 13.89265056537803
0 COSMOS 1275 DEB
1 14358U 81053HU  13294.19610801  .00000645  00000-0  43893-3 0  9819
2 14358 082.8175 335.5761 0200695 082.1598 347.7070 13.89266289537949
0 COSMOS 1275 DEB
1 14358U 81053HU  13295.20438637  .00000708  00000-0  48293-3 0  9827
2 14358 082.8175 334.7968 0200610 079.2869 350.4675 13.89267193538087
